STARLINK-31409          
1 59299U 24056D   25365.09655832 -.00001111  00000+0 -30870-4 0  9997
2 59299  42.9996 251.1928 0001336 248.1895 111.8815 15.27570266100864
STARLINK-31489          
1 59300U 24056E   25365.07760311 -.00000233  00000+0  10574-5 0  9990
2 59300  42.9974 257.9679 0001302 254.2202 105.8507 15.27567834100669
STARLINK-31502          
1 59301U 24056F   25365.07085874  .00000029  00000+0  10553-4 0  9993
2 59301  42.9973 250.9912 0000327 287.3910  72.6906 15.27576649100748
STARLINK-31447          
1 59302U 24056G   25365.09560807 -.00006542  00000+0 -22858-3 0  9998
2 59302  42.9996 258.1028 0000531 272.7256  87.3535 15.27558631100663
STARLINK-31504          
1 59303U 24056H   25365.03791894 -.00004061  00000+0 -13811-3 0  9998
2 59303  43.0018 258.5320 0001066 310.9156  49.1603 15.27583048100659
STARLINK-31474          
1 59304U 24056J   25365.03631887  .00001836  00000+0  76220-4 0  9993
2 59304  43.0003 251.5941 0001814 258.3350 101.7298 15.27579990100733
STARLINK-31500          
1 59305U 24056K   25365.09944968  .00000140  00000+0  14623-4 0  9993
2 59305  43.0018 258.1306 0000729 261.4959  98.5810 15.27564659100663
STARLINK-31480          
1 59306U 24056L   25365.08530873 -.00001449  00000+0 -43174-4 0  9997
2 59306  42.9989 258.0253 0001023 255.9959 104.0779 15.27566180100663
STARLINK-31282          
1 59307U 24056M   25365.10715383  .00000216  00000+0  17378-4 0  9998
2 59307  42.9998 258.1881 0002053 240.6356 119.4290 15.27572436100667
STARLINK-31485          
1 59308U 24056N   25365.11485928 -.00004624  00000+0 -15861-3 0  9992
2 59308  42.9991 258.2463 0001001 268.2418  91.8319 15.27581642100669
STARLINK-31455          
1 59309U 24056P   25365.11534434 -.00000842  00000+0 -21104-4 0  9996
2 59309  42.9983 254.7944 0000482   1.2353 358.8500 15.27578513100707
STARLINK-31475          
1 59310U 24056Q   25365.11278206  .00000450  00000+0  25865-4 0  9991
2 59310  42.9980 254.7748 0000864 271.9555  88.1197 15.27569275100825
STARLINK-31445          
1 59312U 24056S   25365.10748519  .00000834  00000+0  39833-4 0  9997
2 59312  42.9938 265.1140 0001359  89.4590 270.6417 15.27557946100581
STARLINK-31495          
1 59313U 24056T   25365.06701655 -.00003545  00000+0 -11945-3 0  9990
2 59313  43.0020 250.9571 0001086 265.5758  94.4969 15.27553251100743
STARLINK-31477          
1 59314U 24056U   25365.11568753 -.00001387  00000+0 -40894-4 0  9995
2 59314  42.9980 250.4642 0000897 272.7297  87.3452 15.27573152100759
STARLINK-31446          
1 59315U 24056V   25364.74681132  .00000566  00000+0  30087-4 0  9990
2 59315  42.9975 259.7838 0000673 287.8432  72.2346 15.27570361100612
