[{"OBJECT_NAME":"STARLINK-31409","OBJECT_ID":"2024-056D","EPOCH":"2025-12-31T02:19:02.638848","MEAN_MOTION":15.27570266,"ECCENTRICITY":0.00013365,"INCLINATION":42.9996,"RA_OF_ASC_NODE":251.1928,"ARG_OF_PERICENTER":248.1895,"MEAN_ANOMALY":111.8815,"EPHEMERIS_TYPE":0,"CLASSIFICATION_TYPE":"U","NORAD_CAT_ID":59299,"ELEMENT_SET_NO":999,"REV_AT_EPOCH":10086,"BSTAR":-3.0870197e-5,"MEAN_MOTION_DOT":-1.111e-5,"MEAN_MOTION_DDOT":0},{"OBJECT_NAME":"STARLINK-31489","OBJECT_ID":"2024-056E","EPOCH":"2025-12-31T01:51:44.908704","MEAN_MOTION":15.27567834,"ECCENTRICITY":0.00013023,"INCLINATION":42.9974,"RA_OF_ASC_NODE":257.9679,"ARG_OF_PERICENTER":254.2202,"MEAN_ANOMALY":105.8507,"EPHEMERIS_TYPE":0,"CLASSIFICATION_TYPE":"U","NORAD_CAT_ID":59300,"ELEMENT_SET_NO":999,"REV_AT_EPOCH":10066,"BSTAR":1.057351e-6,"MEAN_MOTION_DOT":-2.33e-6,"MEAN_MOTION_DDOT":0},{"OBJECT_NAME":"STARLINK-31502","OBJECT_ID":"2024-056F","EPOCH":"2025-12-31T01:42:02.195136","MEAN_MOTION":15.27576649,"ECCENTRICITY":3.274e-5,"INCLINATION":42.9973,"RA_OF_ASC_NODE":250.9912,"ARG_OF_PERICENTER":287.391,"MEAN_ANOMALY":72.6906,"EPHEMERIS_TYPE":0,"CLASSIFICATION_TYPE":"U","NORAD_CAT_ID":59301,"ELEMENT_SET_NO":999,"REV_AT_EPOCH":10074,"BSTAR":1.0553269e-5,"MEAN_MOTION_DOT":2.9e-7,"MEAN_MOTION_DDOT":0},{"OBJECT_NAME":"STARLINK-31447","OBJECT_ID":"2024-056G","EPOCH":"2025-12-31T02:17:40.537248","MEAN_MOTION":15.27558631,"ECCENTRICITY":5.316e-5,"INCLINATION":42.9996,"RA_OF_ASC_NODE":258.1028,"ARG_OF_PERICENTER":272.7256,"MEAN_ANOMALY":87.3535,"EPHEMERIS_TYPE":0,"CLASSIFICATION_TYPE":"U","NORAD_CAT_ID":59302,"ELEMENT_SET_NO":999,"REV_AT_EPOCH":10066,"BSTAR":-0.00022858346,"MEAN_MOTION_DOT":-6.542e-5,"MEAN_MOTION_DDOT":0},{"OBJECT_NAME":"STARLINK-31504","OBJECT_ID":"2024-056H","EPOCH":"2025-12-31T00:54:36.196416","MEAN_MOTION":15.27583048,"ECCENTRICITY":0.00010669,"INCLINATION":43.0018,"RA_OF_ASC_NODE":258.532,"ARG_OF_PERICENTER":310.9156,"MEAN_ANOMALY":49.1603,"EPHEMERIS_TYPE":0,"CLASSIFICATION_TYPE":"U","NORAD_CAT_ID":59303,"ELEMENT_SET_NO":999,"REV_AT_EPOCH":10065,"BSTAR":-0.00013810608,"MEAN_MOTION_DOT":-4.061e-5,"MEAN_MOTION_DDOT":0},{"OBJECT_NAME":"STARLINK-31474","OBJECT_ID":"2024-056J","EPOCH":"2025-12-31T00:52:17.950368","MEAN_MOTION":15.2757999,"ECCENTRICITY":0.00018146,"INCLINATION":43.0003,"RA_OF_ASC_NODE":251.5941,"ARG_OF_PERICENTER":258.335,"MEAN_ANOMALY":101.7298,"EPHEMERIS_TYPE":0,"CLASSIFICATION_TYPE":"U","NORAD_CAT_ID":59304,"ELEMENT_SET_NO":999,"REV_AT_EPOCH":10073,"BSTAR":7.6219885e-5,"MEAN_MOTION_DOT":1.836e-5,"MEAN_MOTION_DDOT":0},{"OBJECT_NAME":"STARLINK-31500","OBJECT_ID":"2024-056K","EPOCH":"2025-12-31T02:23:12.452352","MEAN_MOTION":15.27564659,"ECCENTRICITY":7.291e-5,"INCLINATION":43.0018,"RA_OF_ASC_NODE":258.1306,"ARG_OF_PERICENTER":261.4959,"MEAN_ANOMALY":98.581,"EPHEMERIS_TYPE":0,"CLASSIFICATION_TYPE":"U","NORAD_CAT_ID":59305,"ELEMENT_SET_NO":999,"REV_AT_EPOCH":10066,"BSTAR":1.4622822e-5,"MEAN_MOTION_DOT":1.4e-6,"MEAN_MOTION_DDOT":0},{"OBJECT_NAME":"STARLINK-31480","OBJECT_ID":"2024-056L","EPOCH":"2025-12-31T02:02:50.674272","MEAN_MOTION":15.2756618,"ECCENTRICITY":0.00010233,"INCLINATION":42.9989,"RA_OF_ASC_NODE":258.0253,"ARG_OF_PERICENTER":255.9959,"MEAN_ANOMALY":104.0779,"EPHEMERIS_TYPE":0,"CLASSIFICATION_TYPE":"U","NORAD_CAT_ID":59306,"ELEMENT_SET_NO":999,"REV_AT_EPOCH":10066,"BSTAR":-4.3173824e-5,"MEAN_MOTION_DOT":-1.449e-5,"MEAN_MOTION_DDOT":0},{"OBJECT_NAME":"STARLINK-31282","OBJECT_ID":"2024-056M","EPOCH":"2025-12-31T02:34:18.090912","MEAN_MOTION":15.27572436,"ECCENTRICITY":0.00020536,"INCLINATION":42.9998,"RA_OF_ASC_NODE":258.1881,"ARG_OF_PERICENTER":240.6356,"MEAN_ANOMALY":119.429,"EPHEMERIS_TYPE":0,"CLASSIFICATION_TYPE":"U","NORAD_CAT_ID":59307,"ELEMENT_SET_NO":999,"REV_AT_EPOCH":10066,"BSTAR":1.7378021e-5,"MEAN_MOTION_DOT":2.16e-6,"MEAN_MOTION_DDOT":0},{"OBJECT_NAME":"STARLINK-31485","OBJECT_ID":"2024-056N","EPOCH":"2025-12-31T02:45:23.841792","MEAN_MOTION":15.27581642,"ECCENTRICITY":0.00010012,"INCLINATION":42.9991,"RA_OF_ASC_NODE":258.2463,"ARG_OF_PERICENTER":268.2418,"MEAN_ANOMALY":91.8319,"EPHEMERIS_TYPE":0,"CLASSIFICATION_TYPE":"U","NORAD_CAT_ID":59308,"ELEMENT_SET_NO":999,"REV_AT_EPOCH":10066,"BSTAR":-0.00015861405,"MEAN_MOTION_DOT":-4.624e-5,"MEAN_MOTION_DDOT":0},{"OBJECT_NAME":"STARLINK-31455","OBJECT_ID":"2024-056P","EPOCH":"2025-12-31T02:46:05.750976","MEAN_MOTION":15.27578513,"ECCENTRICITY":4.829e-5,"INCLINATION":42.9983,"RA_OF_ASC_NODE":254.7944,"ARG_OF_PERICENTER":1.2353,"MEAN_ANOMALY":358.85,"EPHEMERIS_TYPE":0,"CLASSIFICATION_TYPE":"U","NORAD_CAT_ID":59309,"ELEMENT_SET_NO":999,"REV_AT_EPOCH":10070,"BSTAR":-2.1104405e-5,"MEAN_MOTION_DOT":-8.42e-6,"MEAN_MOTION_DDOT":0},{"OBJECT_NAME":"STARLINK-31475","OBJECT_ID":"2024-056Q","EPOCH":"2025-12-31T02:42:24.369984","MEAN_MOTION":15.27569275,"ECCENTRICITY":8.646e-5,"INCLINATION":42.998,"RA_OF_ASC_NODE":254.7748,"ARG_OF_PERICENTER":271.9555,"MEAN_ANOMALY":88.1197,"EPHEMERIS_TYPE":0,"CLASSIFICATION_TYPE":"U","NORAD_CAT_ID":59310,"ELEMENT_SET_NO":999,"REV_AT_EPOCH":10082,"BSTAR":2.5865352e-5,"MEAN_MOTION_DOT":4.5e-6,"MEAN_MOTION_DDOT":0},{"OBJECT_NAME":"STARLINK-31445","OBJECT_ID":"2024-056S","EPOCH":"2025-12-31T02:34:46.720416","MEAN_MOTION":15.27557946,"ECCENTRICITY":0.00013591,"INCLINATION":42.9938,"RA_OF_ASC_NODE":265.114,"ARG_OF_PERICENTER":89.459,"MEAN_ANOMALY":270.6417,"EPHEMERIS_TYPE":0,"CLASSIFICATION_TYPE":"U","NORAD_CAT_ID":59312,"ELEMENT_SET_NO":999,"REV_AT_EPOCH":10058,"BSTAR":3.9833185e-5,"MEAN_MOTION_DOT":8.34e-6,"MEAN_MOTION_DDOT":0},{"OBJECT_NAME":"STARLINK-31495","OBJECT_ID":"2024-056T","EPOCH":"2025-12-31T01:36:30.229920","MEAN_MOTION":15.27553251,"ECCENTRICITY":0.00010864,"INCLINATION":43.002,"RA_OF_ASC_NODE":250.9571,"ARG_OF_PERICENTER":265.5758,"MEAN_ANOMALY":94.4969,"EPHEMERIS_TYPE":0,"CLASSIFICATION_TYPE":"U","NORAD_CAT_ID":59313,"ELEMENT_SET_NO":999,"REV_AT_EPOCH":10074,"BSTAR":-0.00011944888,"MEAN_MOTION_DOT":-3.545e-5,"MEAN_MOTION_DDOT":0},{"OBJECT_NAME":"STARLINK-31477","OBJECT_ID":"2024-056U","EPOCH":"2025-12-31T02:46:35.402592","MEAN_MOTION":15.27573152,"ECCENTRICITY":8.97e-5,"INCLINATION":42.998,"RA_OF_ASC_NODE":250.4642,"ARG_OF_PERICENTER":272.7297,"MEAN_ANOMALY":87.3452,"EPHEMERIS_TYPE":0,"CLASSIFICATION_TYPE":"U","NORAD_CAT_ID":59314,"ELEMENT_SET_NO":999,"REV_AT_EPOCH":10075,"BSTAR":-4.0894312e-5,"MEAN_MOTION_DOT":-1.387e-5,"MEAN_MOTION_DDOT":0},{"OBJECT_NAME":"STARLINK-31446","OBJECT_ID":"2024-056V","EPOCH":"2025-12-30T17:55:24.498048","MEAN_MOTION":15.27570361,"ECCENTRICITY":6.733e-5,"INCLINATION":42.9975,"RA_OF_ASC_NODE":259.7838,"ARG_OF_PERICENTER":287.8432,"MEAN_ANOMALY":72.2346,"EPHEMERIS_TYPE":0,"CLASSIFICATION_TYPE":"U","NORAD_CAT_ID":59315,"ELEMENT_SET_NO":999,"REV_AT_EPOCH":10061,"BSTAR":3.0087348e-5,"MEAN_MOTION_DOT":5.66e-6,"MEAN_MOTION_DDOT":0}]
